[{"OBJECT_NAME":"STARLINK-35450","OBJECT_ID":"2025-223Q","EPOCH":"2026-03-09T21:18:30.443040","MEAN_MOTION":15.30193555,"ECCENTRICITY":0.00010366,"INCLINATION":53.1605,"RA_OF_ASC_NODE":293.4214,"ARG_OF_PERICENTER":74.5557,"MEAN_ANOMALY":285.5558,"EPHEMERIS_TYPE":0,"CLASSIFICATION_TYPE":"U","NORAD_CAT_ID":65868,"ELEMENT_SET_NO":999,"REV_AT_EPOCH":2423,"BSTAR":0.0014391938,"MEAN_MOTION_DOT":0.00042501,"MEAN_MOTION_DDOT":0},{"OBJECT_NAME":"CZ-4C R\/B","OBJECT_ID":"2021-079B","EPOCH":"2026-03-09T14:04:29.438112","MEAN_MOTION":15.08928015,"ECCENTRICITY":0.0108377,"INCLINATION":98.3883,"RA_OF_ASC_NODE":282.6111,"ARG_OF_PERICENTER":26.1585,"MEAN_ANOMALY":334.506,"EPHEMERIS_TYPE":0,"CLASSIFICATION_TYPE":"U","NORAD_CAT_ID":49123,"ELEMENT_SET_NO":999,"REV_AT_EPOCH":24640,"BSTAR":0.00023549,"MEAN_MOTION_DOT":4.178e-5,"MEAN_MOTION_DDOT":0}]
